ONEWEB-0080             
1 45426U 20020C   25223.65732528  .00000117  00000+0  29549-3 0  9997
2 45426  87.8798  82.7494 0001863  70.8308 289.3021 13.11418408262138
ONEWEB-0090             
1 45427U 20020D   25223.90571957  .00000534  00000+0  14716-2 0  9995
2 45427  87.8795  82.7013 0001691  80.6555 279.4764 13.11416381262137
ONEWEB-0061             
1 45428U 20020E   25223.86147711 -.00000480  00000+0 -13907-2 0  9991
2 45428  87.8795  82.6914 0001774  80.9142 279.2186 13.11416428262086
ONEWEB-0081             
1 45429U 20020F   25223.84298674  .00000256  00000+0  68512-3 0  9997
2 45429  87.8791  82.7149 0001980  83.4085 276.7268 13.11416148262191
ONEWEB-0069             
1 45430U 20020G   25223.90825994  .00000519  00000+0  14299-2 0  9991
2 45430  87.8796  82.6948 0001831  84.8753 275.2583 13.11415682262136
ONEWEB-0031             
1 45431U 20020H   25223.95656116 -.00000452  00000+0 -13122-2 0  9997
2 45431  87.8795  82.7150 0001599  76.6536 283.4770 13.11418333262125
ONEWEB-0027             
1 45432U 20020J   25223.94190671  .00000004  00000+0 -24166-4 0  9990
2 45432  87.9034  67.3788 0001369  85.0605 275.0683 13.17647965265635
ONEWEB-0064             
1 45433U 20020K   25223.87856708 -.00000514  00000+0 -14872-2 0  9991
2 45433  87.8796  82.7224 0001589  80.3681 279.7626 13.11417447262147
